NORAD_CAT_ID,OBJECT_NAME,OBJECT_TYPE,EPOCH,MEAN_MOTION,ECCENTRICITY,INCLINATION,RA_OF_ASC_NODE,ARG_OF_PERICENTER,MEAN_ANOMALY,BSTAR,MEAN_MOTION_DOT,MEAN_MOTION_DDOT,TLE_LINE0,TLE_LINE1,TLE_LINE2,SEMIMAJOR_AXIS,PERIOD,APOGEE,PERIGEE,DECAYED
53612.0,STARLINK-4658,PAYLOAD,2024-01-14 16:14:05,15.08845332,0.0001299,53.2167,158.252,92.3798,267.7343,6.2595e-05,7.09e-06,0.0,0 STARLINK-4658,1 53612U 22104AA  24014.67645736  .00000709  00000-0  62595-4 0  9998,2 53612  53.2167 158.2520 0001299  92.3798 267.7343 15.08845332 77123,6917.864,95.437,540.628,538.83,0.0
53612.0,STARLINK-4658,PAYLOAD,2024-01-15 14:29:30,15.08842114,0.0001474,53.2163,154.091,92.8176,267.2985,4.0987e-05,3.64e-06,0.0,0 STARLINK-4658,1 53612U 22104AA  24015.60382082  .00000364  00000-0  40987-4 0  9992,2 53612  53.2163 154.0910 0001474  92.8176 267.2985 15.08842114 77263,6917.874,95.437,540.759,538.719,0.0
53612.0,STARLINK-4658,PAYLOAD,2024-01-15 16:04:52,15.08846413,0.0001333,53.2164,153.7929,90.5535,269.561,5.5748e-05,6e-06,0.0,0 STARLINK-4658,1 53612U 22104AA  24015.67005732  .00000600  00000-0  55748-4 0  9997,2 53612  53.2164 153.7929 0001333  90.5535 269.5610 15.08846413 76702,6917.861,95.437,540.648,538.804,0.0
53612.0,STARLINK-4658,PAYLOAD,2024-01-16 12:44:54,15.08836261,0.000136,53.2169,149.928,99.2751,260.8395,-2.4378e-05,-6.76e-06,0.0,0 STARLINK-4658,1 53612U 22104AA  24016.53118857 -.00000676  00000-0 -24378-4 0  9996,2 53612  53.2169 149.9280 0001360  99.2751 260.8395 15.08836261 76838,6917.892,95.438,540.698,538.816,0.0
53612.0,STARLINK-4658,PAYLOAD,2024-01-16 14:20:17,15.08836449,0.0001272,53.2165,149.6311,97.5071,262.6066,-7.1765e-06,-4.02e-06,0.0,0 STARLINK-4658,1 53612U 22104AA  24016.59742823 -.00000402  00000-0 -71765-5 0  9998,2 53612  53.2165 149.6311 0001272  97.5071 262.6066 15.08836449 77412,6917.891,95.438,540.636,538.876,0.0
53612.0,STARLINK-4658,PAYLOAD,2024-01-16 15:55:40,15.08838104,0.0001298,53.2167,149.3336,98.9363,261.1776,5.2733e-06,-2.04e-06,0.0,0 STARLINK-4658,1 53612U 22104AA  24016.66366686 -.00000204  00000-0  52733-5 0  9998,2 53612  53.2167 149.3336 0001298  98.9363 261.1776 15.08838104 77428,6917.886,95.438,540.649,538.853,0.0
53612.0,STARLINK-4658,PAYLOAD,2024-01-17 14:11:05,15.0883955,0.0001319,53.2167,145.1703,105.4599,254.6539,-1.6895e-05,-5.57e-06,0.0,0 STARLINK-4658,1 53612U 22104AA  24017.59103021 -.00000557  00000-0 -16895-4 0  9993,2 53612  53.2167 145.1703 0001319 105.4599 254.6539 15.08839550 77564,6917.882,95.438,540.659,538.834,0.0
53612.0,STARLINK-4658,PAYLOAD,2024-01-17 15:46:27,15.08838907,0.0001427,53.2177,144.874,103.0382,257.077,8.7532e-05,1.105e-05,0.0,0 STARLINK-4658,1 53612U 22104AA  24017.65726813  .00001105  00000-0  87532-4 0  9994,2 53612  53.2177 144.8740 0001427 103.0382 257.0770 15.08838907 77004,6917.884,95.438,540.736,538.762,0.0
53612.0,STARLINK-4658,PAYLOAD,2024-01-18 14:01:52,15.08835325,0.0001457,53.2192,140.7145,50.7414,309.3707,0.00015598,2.195e-05,0.0,0 STARLINK-4658,1 53612U 22104AA  24018.58463419  .00002195  00000-0  15598-3 0  9999,2 53612  53.2192 140.7145 0001457  50.7414 309.3707 15.08835325 77712,6917.895,95.438,540.768,538.752,0.0
53612.0,STARLINK-4658,PAYLOAD,2024-01-18 15:37:15,15.08835561,0.000169,53.2195,140.4168,71.866,288.2516,0.00020339,2.95e-05,0.0,0 STARLINK-4658,1 53612U 22104AA  24018.65087330  .00002950  00000-0  20339-3 0  9999,2 53612  53.2195 140.4168 0001690  71.8660 288.2516 15.08835561 77729,6917.894,95.438,540.928,538.59,0.0
53612.0,STARLINK-4658,PAYLOAD,2024-01-19 12:17:16,15.08844741,0.0001609,53.2183,136.5504,76.3375,283.7796,5.8296e-05,6.4e-06,0.0,0 STARLINK-4658,1 53612U 22104AA  24019.51199118  .00000640  00000-0  58296-4 0  9991,2 53612  53.2183 136.5504 0001609  76.3375 283.7796 15.08844741 77280,6917.866,95.437,540.844,538.618,0.0
53612.0,STARLINK-4658,PAYLOAD,2024-01-19 13:52:39,15.08844903,0.0001772,53.2186,136.2538,68.9502,291.168,6.8562e-05,8.03e-06,0.0,0 STARLINK-4658,1 53612U 22104AA  24019.57823073  .00000803  00000-0  68562-4 0  9999,2 53612  53.2186 136.2538 0001772  68.9502 291.1680 15.08844903 77866,6917.865,95.437,540.956,538.505,0.0
53612.0,STARLINK-4658,PAYLOAD,2024-01-19 15:28:01,15.08850819,0.0001844,53.2184,135.9566,57.887,302.2301,0.0001313,1.803e-05,0.0,0 STARLINK-4658,1 53612U 22104AA  24019.64446595  .00001803  00000-0  13130-3 0  9998,2 53612  53.2184 135.9566 0001844  57.8870 302.2301 15.08850819 77302,6917.847,95.437,540.988,538.437,0.0
53612.0,STARLINK-4658,PAYLOAD,2024-01-20 12:08:03,15.0884082,0.0001469,53.2187,132.0884,76.9558,283.1598,-2.5525e-05,-6.94e-06,0.0,0 STARLINK-4658,1 53612U 22104AA  24020.50559493 -.00000694  00000-0 -25525-4 0  9998,2 53612  53.2187 132.0884 0001469  76.9558 283.1598 15.08840820 77434,6917.878,95.438,540.759,538.727,0.0
53612.0,STARLINK-4658,PAYLOAD,2024-01-20 13:43:26,15.08842555,0.0001746,53.2188,131.7905,66.8935,293.2242,-1.8396e-05,-5.81e-06,0.0,0 STARLINK-4658,1 53612U 22104AA  24020.57183462 -.00000581  00000-0 -18396-4 0  9997,2 53612  53.2188 131.7905 0001746  66.8935 293.2242 15.08842555 78010,6917.873,95.437,540.945,538.53,0.0
53612.0,STARLINK-4658,PAYLOAD,2024-01-21 13:34:11,15.08867415,0.0001367,53.2179,127.3291,86.785,273.3299,0.00013054,1.792e-05,0.0,0 STARLINK-4658,1 53612U 22104AA  24021.56541098  .00001792  00000-0  13054-3 0  9998,2 53612  53.2179 127.3291 0001367  86.7850 273.3299 15.08867415 77590,6917.797,95.436,540.607,538.716,0.0
53612.0,STARLINK-4658,PAYLOAD,2024-01-21 16:44:57,15.08866837,0.0001495,53.2175,126.7324,102.5195,257.5965,0.00011858,1.601e-05,0.0,0 STARLINK-4658,1 53612U 22104AA  24021.69788879  .00001601  00000-0  11858-3 0  9991,2 53612  53.2175 126.7324 0001495 102.5195 257.5965 15.08866837 78184,6917.798,95.436,540.698,538.629,0.0
53612.0,STARLINK-4658,PAYLOAD,2024-01-22 07:03:27,15.08836888,0.0001731,53.2186,124.0582,103.0351,257.0834,2.8582e-06,-2.43e-06,0.0,0 STARLINK-4658,1 53612U 22104AA  24022.29407213 -.00000243  00000-0  28582-5 0  9994,2 53612  53.2186 124.0582 0001731 103.0351 257.0834 15.08836888 78279,6917.89,95.438,540.952,538.557,0.0
53612.0,STARLINK-4658,PAYLOAD,2024-01-22 11:49:37,15.0883592,0.0001328,53.2171,123.1656,88.2192,271.8952,-2.6308e-06,-3.3e-06,0.0,0 STARLINK-4658,1 53612U 22104AA  24022.49279343 -.00000330  00000-0 -26308-5 0  9999,2 53612  53.2171 123.1656 0001328  88.2192 271.8952 15.08835920 77735,6917.893,95.438,540.677,538.839,0.0
53612.0,STARLINK-4658,PAYLOAD,2024-01-22 13:25:00,15.08837882,0.0001427,53.2175,122.8675,76.5296,283.5855,1.3932e-05,-6.6e-07,0.0,0 STARLINK-4658,1 53612U 22104AA  24022.55903249 -.00000066  00000-0  13932-4 0  9998,2 53612  53.2175 122.8675 0001427  76.5296 283.5855 15.08837882 78317,6917.887,95.438,540.739,538.765,0.0
53612.0,STARLINK-4658,PAYLOAD,2024-01-23 11:40:23,15.08859023,0.0001642,53.2179,118.7044,108.8633,251.2538,-2.2647e-05,-6.49e-06,0.0,0 STARLINK-4658,1 53612U 22104AA  24023.48638067 -.00000649  00000-0 -22647-4 0  9995,2 53612  53.2179 118.7044 0001642 108.8633 251.2538 15.08859023 77880,6917.822,95.436,540.823,538.551,0.0
53612.0,STARLINK-4658,PAYLOAD,2024-01-24 11:31:11,15.08833245,0.0001434,53.2175,114.2444,84.3791,275.7364,6.749e-05,7.86e-06,0.0,0 STARLINK-4658,1 53612U 22104AA  24024.47999927  .00000786  00000-0  67490-4 0  9995,2 53612  53.2175 114.2444 0001434  84.3791 275.7364 15.08833245 78037,6917.901,95.438,540.758,538.774,0.0
53612.0,STARLINK-4658,PAYLOAD,2024-01-25 11:21:59,15.08800481,0.0001774,53.218,109.7838,97.7294,262.39,0.00056805,8.754e-05,0.0,0 STARLINK-4658,1 53612U 22104AA  24025.47360787  .00008754  00000-0  56805-3 0  9992,2 53612  53.2180 109.7838 0001774  97.7294 262.3900 15.08800481 78182,6918.001,95.44,541.093,538.639,0.0
53612.0,STARLINK-4658,PAYLOAD,2024-01-25 12:57:21,15.0884883,0.0001571,53.2179,109.4859,98.7267,261.3903,5.2178e-05,5.43e-06,0.0,0 STARLINK-4658,1 53612U 22104AA  24025.53983323  .00000543  00000-0  52178-4 0  9994,2 53612  53.2179 109.4859 0001571  98.7267 261.3903 15.08848830 78762,6917.853,95.437,540.805,538.632,0.0
53612.0,STARLINK-4658,PAYLOAD,2024-01-26 11:12:45,15.08842936,0.0001558,53.2177,105.3228,75.0884,285.0281,0.00014217,1.976e-05,0.0,0 STARLINK-4658,1 53612U 22104AA  24026.46719787  .00001976  00000-0  14217-3 0  9990,2 53612  53.2177 105.3228 0001558  75.0884 285.0281 15.08842936 78339,6917.871,95.437,540.814,538.659,0.0
53612.0,STARLINK-4658,PAYLOAD,2024-01-26 12:48:09,15.08815539,0.0002036,53.2187,105.0266,59.6116,300.5077,0.00053859,8.288e-05,0.0,0 STARLINK-4658,1 53612U 22104AA  24026.53344525  .00008288  00000-0  53859-3 0  9990,2 53612  53.2187 105.0266 0002036  59.6116 300.5077 15.08815539 78916,6917.955,95.439,541.229,538.412,0.0
53612.0,STARLINK-4658,PAYLOAD,2024-01-27 11:03:33,15.08830059,0.0002157,53.2189,100.8632,53.6158,306.5033,0.00020399,2.959e-05,0.0,0 STARLINK-4658,1 53612U 22104AA  24027.46080594  .00002959  00000-0  20399-3 0  9998,2 53612  53.2189 100.8632 0002157  53.6158 306.5033 15.08830059 79050,6917.911,95.438,541.268,538.284,0.0
53612.0,STARLINK-4658,PAYLOAD,2024-01-28 04:32:47,15.08844312,0.0001451,53.2164,97.5978,85.2374,274.8784,-3.5447e-05,-8.52e-06,0.0,0 STARLINK-4658,1 53612U 22104AA  24028.18944166 -.00000852  00000-0 -35447-4 0  9995,2 53612  53.2164  97.5978 0001451  85.2374 274.8784 15.08844312 78590,6917.867,95.437,540.736,538.728,0.0
53612.0,STARLINK-4658,PAYLOAD,2024-01-28 10:54:20,15.08841616,0.0001462,53.2165,96.4071,77.9465,282.1691,-3.4487e-05,-8.37e-06,0.0,0 STARLINK-4658,1 53612U 22104AA  24028.45440317 -.00000837  00000-0 -34487-4 0  9990,2 53612  53.2165  96.4071 0001462  77.9465 282.1691 15.08841616 79206,6917.875,95.437,540.752,538.729,0.0
53612.0,STARLINK-4658,PAYLOAD,2024-01-29 10:45:06,15.08843983,0.0001501,53.2167,91.9462,88.2682,271.8482,8.9287e-05,1.133e-05,0.0,0 STARLINK-4658,1 53612U 22104AA  24029.44799738  .00001133  00000-0  89287-4 0  9990,2 53612  53.2167  91.9462 0001501  88.2682 271.8482 15.08843983 78786,6917.868,95.437,540.772,538.695,0.0
